[{"OBJECT_NAME":"STARLINK-5477","OBJECT_ID":"2023-021AH","EPOCH":"2026-03-09T15:20:47.994432","MEAN_MOTION":14.98322466,"ECCENTRICITY":0.00029945,"INCLINATION":70.0012,"RA_OF_ASC_NODE":164.7194,"ARG_OF_PERICENTER":271.0694,"MEAN_ANOMALY":89.0122,"EPHEMERIS_TYPE":0,"CLASSIFICATION_TYPE":"U","NORAD_CAT_ID":55659,"ELEMENT_SET_NO":999,"REV_AT_EPOCH":16926,"BSTAR":-0.00017888098,"MEAN_MOTION_DOT":-2.226e-5,"MEAN_MOTION_DDOT":0},{"OBJECT_NAME":"PEGASUS DEB","OBJECT_ID":"1994-029AGC","EPOCH":"2026-03-05T08:27:18.984384","MEAN_MOTION":14.52218034,"ECCENTRICITY":0.0236757,"INCLINATION":81.9426,"RA_OF_ASC_NODE":296.4283,"ARG_OF_PERICENTER":114.8689,"MEAN_ANOMALY":247.7324,"EPHEMERIS_TYPE":0,"CLASSIFICATION_TYPE":"U","NORAD_CAT_ID":39929,"ELEMENT_SET_NO":999,"REV_AT_EPOCH":61587,"BSTAR":0.0010545,"MEAN_MOTION_DOT":6.215e-5,"MEAN_MOTION_DDOT":0}]
